{"type": "FeatureCollection", "features": [ {"type": "Feature", "properties": {"norad_id": 34304, "name": "COSMOS 2251 DEB", "group": "cosmos-2251-debris", "lat": -23.773840901431264, "lon": -74.90570606987883, "alt_km": 688.8390860798527, "timestamp": "2025-12-26T03:50:12.488079+00:00", "meta": {"OBJECT_NAME": "COSMOS 2251 DEB", "OBJECT_ID": "1993-036NA", "EPOCH": "2025-12-25T08:50:34.993248", "MEAN_MOTION": 14.37981033, "ECCENTRICITY": 0.0128954, "INCLINATION": 74.0138, "RA_OF_ASC_NODE": 99.299, "ARG_OF_PERICENTER": 234.5497, "MEAN_ANOMALY": 195.566, "EPHEMERIS_TYPE": 0, "CLASSIFICATION_TYPE": "U", "NORAD_CAT_ID": 34304, "ELEMENT_SET_NO": 999, "REV_AT_EPOCH": 87478, "BSTAR": 0.0017049, "MEAN_MOTION_DOT": 5.652e-05, "MEAN_MOTION_DDOT": 0}, "tle": {"line1": "1 34304U 93036NA  25359.36846057  .00005652  00000+0  17049-2 0  9998", "line2": "2 34304  74.0138  99.2990 0128954 234.5497 195.5660 14.37981033874785"}}, "geometry": {"type": "Point", "coordinates": [-74.90570606987883, -23.773840901431264]}}, {"type": "Feature", "properties": {"norad_id": 34307, "name": "COSMOS 2251 DEB", "group": "cosmos-2251-debris", "lat": -26.0642844179356, "lon": -76.45643104479066, "alt_km": 1301.344810460142, "timestamp": "2025-12-26T03:50:12.488090+00:00", "meta": {"OBJECT_NAME": "COSMOS 2251 DEB", "OBJECT_ID": "1993-036ND", "EPOCH": "2025-12-25T12:35:15.052992", "MEAN_MOTION": 13.54341204, "ECCENTRICITY": 0.0391766, "INCLINATION": 74.0541, "RA_OF_ASC_NODE": 292.6012, "ARG_OF_PERICENTER": 120.7201, "MEAN_ANOMALY": 357.9638, "EPHEMERIS_TYPE": 0, "CLASSIFICATION_TYPE": "U", "NORAD_CAT_ID": 34307, "ELEMENT_SET_NO": 999, "REV_AT_EPOCH": 83035, "BSTAR": 0.0007748, "MEAN_MOTION_DOT": 8.43e-06, "MEAN_MOTION_DDOT": 0}, "tle": {"line1": "1 34307U 93036ND  25359.52447978  .00000843  00000+0  77480-3 0  9991", "line2": "2 34307  74.0541 292.6012 0391766 120.7201 357.9638 13.54341204830354"}}, "geometry": {"type": "Point", "coordinates": [-76.45643104479066, -26.0642844179356]}}, {"type": "Feature", "properties": {"norad_id": 34313, "name": "COSMOS 2251 DEB", "group": "cosmos-2251-debris", "lat": -29.867748194596636, "lon": 106.74532303908907, "alt_km": 514.2956675943406, "timestamp": "2025-12-26T03:50:12.488100+00:00", "meta": {"OBJECT_NAME": "COSMOS 2251 DEB", "OBJECT_ID": "1993-036NK", "EPOCH": "2025-12-25T19:01:20.018784", "MEAN_MOTION": 15.21429219, "ECCENTRICITY": 0.0012202, "INCLINATION": 73.971, "RA_OF_ASC_NODE": 278.0165, "ARG_OF_PERICENTER": 60.7999, "MEAN_ANOMALY": 299.4418, "EPHEMERIS_TYPE": 0, "CLASSIFICATION_TYPE": "U", "NORAD_CAT_ID": 34313, "ELEMENT_SET_NO": 999, "REV_AT_EPOCH": 89263, "BSTAR": 0.0045434, "MEAN_MOTION_DOT": 0.00103678, "MEAN_MOTION_DDOT": 0}, "tle": {"line1": "1 34313U 93036NK  25359.79259281  .00103678  00000+0  45434-2 0  9998", "line2": "2 34313  73.9710 278.0165 0012202  60.7999 299.4418 15.21429219892630"}}, "geometry": {"type": "Point", "coordinates": [106.74532303908907, -29.867748194596636]}}, {"type": "Feature", "properties": {"norad_id": 34314, "name": "COSMOS 2251 DEB", "group": "cosmos-2251-debris", "lat": -47.86096523094119, "lon": -94.04624731454525, "alt_km": 823.334396789759, "timestamp": "2025-12-26T03:50:12.488110+00:00", "meta": {"OBJECT_NAME": "COSMOS 2251 DEB", "OBJECT_ID": "1993-036NL", "EPOCH": "2025-12-25T19:53:15.068832", "MEAN_MOTION": 14.17456813, "ECCENTRICITY": 0.0103552, "INCLINATION": 74.0062, "RA_OF_ASC_NODE": 285.0253, "ARG_OF_PERICENTER": 27.6162, "MEAN_ANOMALY": 33.6381, "EPHEMERIS_TYPE": 0, "CLASSIFICATION_TYPE": "U", "NORAD_CAT_ID": 34314, "ELEMENT_SET_NO": 999, "REV_AT_EPOCH": 86843, "BSTAR": 0.00061006, "MEAN_MOTION_DOT": 1.279e-05, "MEAN_MOTION_DDOT": 0}, "tle": {"line1": "1 34314U 93036NL  25359.82864663  .00001279  00000+0  61006-3 0  9997", "line2": "2 34314  74.0062 285.0253 0103552  27.6162  33.6381 14.17456813868434"}}, "geometry": {"type": "Point", "coordinates": [-94.04624731454525, -47.86096523094119]}}, {"type": "Feature", "properties": {"norad_id": 34316, "name": "COSMOS 2251 DEB", "group": "cosmos-2251-debris", "lat": 35.68685337777297, "lon": 118.1571590002127, "alt_km": 590.4662731430699, "timestamp": "2025-12-26T03:50:12.488121+00:00", "meta": {"OBJECT_NAME": "COSMOS 2251 DEB", "OBJECT_ID": "1993-036NN", "EPOCH": "2025-12-25T14:19:44.175648", "MEAN_MOTION": 14.92240854, "ECCENTRICITY": 0.000919, "INCLINATION": 74.0656, "RA_OF_ASC_NODE": 311.1258, "ARG_OF_PERICENTER": 32.3565, "MEAN_ANOMALY": 327.818, "EPHEMERIS_TYPE": 0, "CLASSIFICATION_TYPE": "U", "NORAD_CAT_ID": 34316, "ELEMENT_SET_NO": 999, "REV_AT_EPOCH": 89401, "BSTAR": 0.0019689, "MEAN_MOTION_DOT": 0.00020121, "MEAN_MOTION_DDOT": 0}, "tle": {"line1": "1 34316U 93036NN  25359.59703907  .00020121  00000+0  19689-2 0  9992", "line2": "2 34316  74.0656 311.1258 0009190  32.3565 327.8180 14.92240854894011"}}, "geometry": {"type": "Point", "coordinates": [118.1571590002127, 35.68685337777297]}}, {"type": "Feature", "properties": {"norad_id": 34317, "name": "COSMOS 2251 DEB", "group": "cosmos-2251-debris", "lat": -56.14908320940878, "lon": -140.87307079893162, "alt_km": 1144.2957469578187, "timestamp": "2025-12-26T03:50:12.488131+00:00", "meta": {"OBJECT_NAME": "COSMOS 2251 DEB", "OBJECT_ID": "1993-036NP", "EPOCH": "2025-12-24T19:53:47.023008", "MEAN_MOTION": 13.65137258, "ECCENTRICITY": 0.03369655, "INCLINATION": 73.9242, "RA_OF_ASC_NODE": 15.8553, "ARG_OF_PERICENTER": 2.7883, "MEAN_ANOMALY": 182.3062, "EPHEMERIS_TYPE": 0, "CLASSIFICATION_TYPE": "U", "NORAD_CAT_ID": 34317, "ELEMENT_SET_NO": 999, "REV_AT_EPOCH": 83784, "BSTAR": 0.00062515685, "MEAN_MOTION_DOT": 7.24e-06, "MEAN_MOTION_DDOT": 0}, "tle": {"line1": "1 34317U 93036NP  25358.82901647  .00000724  00000+0  62516-3 0  9994", "line2": "2 34317  73.9242  15.8553 0336965   2.7883 182.3062 13.65137258837847"}}, "geometry": {"type": "Point", "coordinates": [-140.87307079893162, -56.14908320940878]}}, {"type": "Feature", "properties": {"norad_id": 34321, "name": "COSMOS 2251 DEB", "group": "cosmos-2251-debris", "lat": 62.22612770968133, "lon": 164.08930157342164, "alt_km": 729.970083490366, "timestamp": "2025-12-26T03:50:12.488142+00:00", "meta": {"OBJECT_NAME": "COSMOS 2251 DEB", "OBJECT_ID": "1993-036NT", "EPOCH": "2025-12-25T19:49:55.565184", "MEAN_MOTION": 14.50112007, "ECCENTRICITY": 0.0016041, "INCLINATION": 74.0288, "RA_OF_ASC_NODE": 131.774, "ARG_OF_PERICENTER": 260.6384, "MEAN_ANOMALY": 225.892, "EPHEMERIS_TYPE": 0, "CLASSIFICATION_TYPE": "U", "NORAD_CAT_ID": 34321, "ELEMENT_SET_NO": 999, "REV_AT_EPOCH": 88676, "BSTAR": 0.00065749, "MEAN_MOTION_DOT": 2.529e-05, "MEAN_MOTION_DDOT": 0}, "tle": {"line1": "1 34321U 93036NT  25359.82633756  .00002529  00000+0  65749-3 0  9999", "line2": "2 34321  74.0288 131.7740 0016041 260.6384 225.8920 14.50112007886762"}}, "geometry": {"type": "Point", "coordinates": [164.08930157342164, 62.22612770968133]}}, {"type": "Feature", "properties": {"norad_id": 34323, "name": "COSMOS 2251 DEB", "group": "cosmos-2251-debris", "lat": -7.759719253112749, "lon": -80.98239416795526, "alt_km": 623.6046376546001, "timestamp": "2025-12-26T03:50:12.488152+00:00", "meta": {"OBJECT_NAME": "COSMOS 2251 DEB", "OBJECT_ID": "1993-036NV", "EPOCH": "2025-12-25T17:46:30.349056", "MEAN_MOTION": 14.7482066, "ECCENTRICITY": 0.005718, "INCLINATION": 73.9528, "RA_OF_ASC_NODE": 97.5927, "ARG_OF_PERICENTER": 138.3754, "MEAN_ANOMALY": 344.1097, "EPHEMERIS_TYPE": 0, "CLASSIFICATION_TYPE": "U", "NORAD_CAT_ID": 34323, "ELEMENT_SET_NO": 999, "REV_AT_EPOCH": 88631, "BSTAR": 0.00227, "MEAN_MOTION_DOT": 0.00015618, "MEAN_MOTION_DDOT": 0}, "tle": {"line1": "1 34323U 93036NV  25359.74062904  .00015618  00000+0  22700-2 0  9995", "line2": "2 34323  73.9528  97.5927 0057180 138.3754 344.1097 14.74820660886314"}}, "geometry": {"type": "Point", "coordinates": [-80.98239416795526, -7.759719253112749]}}, {"type": "Feature", "properties": {"norad_id": 34325, "name": "COSMOS 2251 DEB", "group": "cosmos-2251-debris", "lat": -71.14720359330823, "lon": 47.095893125017604, "alt_km": 849.1367603758545, "timestamp": "2025-12-26T03:50:12.488162+00:00", "meta": {"OBJECT_NAME": "COSMOS 2251 DEB", "OBJECT_ID": "1993-036NX", "EPOCH": "2025-12-25T20:22:01.149024", "MEAN_MOTION": 14.04557216, "ECCENTRICITY": 0.0191323, "INCLINATION": 73.8708, "RA_OF_ASC_NODE": 169.7082, "ARG_OF_PERICENTER": 184.6073, "MEAN_ANOMALY": 300.2116, "EPHEMERIS_TYPE": 0, "CLASSIFICATION_TYPE": "U", "NORAD_CAT_ID": 34325, "ELEMENT_SET_NO": 999, "REV_AT_EPOCH": 85699, "BSTAR": 0.0020444, "MEAN_MOTION_DOT": 3.821e-05, "MEAN_MOTION_DDOT": 0}, "tle": {"line1": "1 34325U 93036NX  25359.84862441  .00003821  00000+0  20444-2 0  9998", "line2": "2 34325  73.8708 169.7082 0191323 184.6073 300.2116 14.04557216856998"}}, "geometry": {"type": "Point", "coordinates": [47.095893125017604, -71.14720359330823]}}, {"type": "Feature", "properties": {"norad_id": 34327, "name": "COSMOS 2251 DEB", "group": "cosmos-2251-debris", "lat": -25.383178076358465, "lon": -27.181030059548565, "alt_km": 613.7740168878445, "timestamp": "2025-12-26T03:50:12.488172+00:00", "meta": {"OBJECT_NAME": "COSMOS 2251 DEB", "OBJECT_ID": "1993-036NZ", "EPOCH": "2025-12-25T21:00:08.868096", "MEAN_MOTION": 14.89478709, "ECCENTRICITY": 0.0033746, "INCLINATION": 73.9942, "RA_OF_ASC_NODE": 145.5616, "ARG_OF_PERICENTER": 319.4868, "MEAN_ANOMALY": 160.9451, "EPHEMERIS_TYPE": 0, "CLASSIFICATION_TYPE": "U", "NORAD_CAT_ID": 34327, "ELEMENT_SET_NO": 999, "REV_AT_EPOCH": 89703, "BSTAR": 0.0013744, "MEAN_MOTION_DOT": 0.00013213, "MEAN_MOTION_DDOT": 0}, "tle": {"line1": "1 34327U 93036NZ  25359.87510264  .00013213  00000+0  13744-2 0  9997", "line2": "2 34327  73.9942 145.5616 0033746 319.4868 160.9451 14.89478709897035"}}, "geometry": {"type": "Point", "coordinates": [-27.181030059548565, -25.383178076358465]}}]}